{"type":"FeatureCollection","features":[{"type":"Feature","geometry":{"type":"Point","coordinates":[-71.03042,42.409064]},"properties":{"Covered":"no","Rack type":"rack"}},{"type":"Feature","geometry":{"type":"Point","coordinates":[-71.031487,42.409436]},"properties":{"Rack type":"rack"}},{"type":"Feature","geometry":{"type":"Point","coordinates":[-71.065961,42.427946]},"properties":{"Spaces":"8","Covered":"no","Rack type":"loops"}},{"type":"Feature","geometry":{"type":"Point","coordinates":[-71.023823,42.42896]},"properties":{"Rack type":"rack"}},{"type":"Feature","geometry":{"type":"Point","coordinates":[-71.069473,42.409328]},"properties":{}},{"type":"Feature","geometry":{"type":"Point","coordinates":[-71.071404,42.409759]},"properties":{}},{"type":"Feature","geometry":{"type":"Point","coordinates":[-71.06558,42.434177]},"properties":{"Spaces":"2","Covered":"no","Rack type":"bollard"}},{"type":"Feature","geometry":{"type":"Point","coordinates":[-71.065875,42.432935]},"properties":{"Spaces":"2","Covered":"no","Rack type":"bollard"}},{"type":"Feature","geometry":{"type":"Point","coordinates":[-71.044923,42.426845]},"properties":{"Spaces":"4","Covered":"no","Rack type":"stands"}},{"type":"Feature","geometry":{"type":"Point","coordinates":[-71.044235,42.427092]},"properties":{"Spaces":"8","Covered":"no","Rack type":"stands"}},{"type":"Feature","geometry":{"type":"Point","coordinates":[-71.046644,42.414768]},"properties":{}},{"type":"Feature","geometry":{"type":"Point","coordinates":[-71.046599,42.416863]},"properties":{}},{"type":"Feature","geometry":{"type":"Point","coordinates":[-71.050483,42.421844]},"properties":{"Spaces":"8","Covered":"no","Rack type":"wall_loops"}},{"type":"Feature","geometry":{"type":"Point","coordinates":[-71.073869,42.427094]},"properties":{"Spaces":"12","Covered":"no","Rack type":"stands"}},{"type":"Feature","geometry":{"type":"Point","coordinates":[-71.073925,42.427214]},"properties":{"Spaces":"30","Covered":"no","Rack type":"stands"}},{"type":"Feature","geometry":{"type":"Point","coordinates":[-71.073618,42.426812]},"properties":{"Spaces":"14","Covered":"no","Rack type":"stands"}},{"type":"Feature","geometry":{"type":"Point","coordinates":[-71.052843,42.414831]},"properties":{}},{"type":"Feature","geometry":{"type":"Point","coordinates":[-71.042012,42.422122]},"properties":{}},{"type":"Feature","geometry":{"type":"Point","coordinates":[-71.06986,42.427093]},"properties":{"Rack type":"stands"}},{"type":"Feature","geometry":{"type":"Point","coordinates":[-71.071579,42.426301]},"properties":{}},{"type":"Feature","geometry":{"type":"Point","coordinates":[-71.068454,42.426789]},"properties":{}},{"type":"Feature","geometry":{"type":"Point","coordinates":[-71.068549,42.425989]},"properties":{}},{"type":"Feature","geometry":{"type":"Point","coordinates":[-71.067265,42.429573]},"properties":{}},{"type":"Feature","geometry":{"type":"Point","coordinates":[-71.065565,42.42591]},"properties":{"Spaces":"6","Covered":"no"}},{"type":"Feature","geometry":{"type":"Point","coordinates":[-71.068035,42.440992]},"properties":{"Spaces":"5","Covered":"no","Rack type":"stands"}},{"type":"Feature","geometry":{"type":"Point","coordinates":[-71.068228,42.444296]},"properties":{"Spaces":"2","Covered":"no","Rack type":"stands"}},{"type":"Feature","geometry":{"type":"Point","coordinates":[-71.02525,42.432331]},"properties":{"Spaces":"2","Covered":"no","Rack type":"stands"}},{"type":"Feature","geometry":{"type":"Point","coordinates":[-71.03922,42.430902]},"properties":{"Spaces":"4","Covered":"no","Rack type":"stands"}},{"type":"Feature","geometry":{"type":"Point","coordinates":[-71.073983,42.410593]},"properties":{"Spaces":"4","Covered":"no","Rack type":"hoop"}},{"type":"Feature","geometry":{"type":"Point","coordinates":[-71.044175,42.414219]},"properties":{"Spaces":"4","Covered":"no","Rack type":"wave"}},{"type":"Feature","geometry":{"type":"Point","coordinates":[-71.077586,42.426877]},"properties":{"Spaces":"2","Covered":"no","Rack type":"stands"}},{"type":"Feature","geometry":{"type":"Point","coordinates":[-71.055451,42.415151]},"properties":{"Spaces":"6","Covered":"no","Rack type":"stands"}},{"type":"Feature","geometry":{"type":"Point","coordinates":[-71.054997,42.415005]},"properties":{"Spaces":"14","Covered":"no","Rack type":"stands"}},{"type":"Feature","geometry":{"type":"Point","coordinates":[-71.052434,42.414963]},"properties":{"Spaces":"6","Covered":"no","Rack type":"stands"}},{"type":"Feature","geometry":{"type":"Point","coordinates":[-71.071042,42.437047]},"properties":{"Spaces":"32","Covered":"no","Rack type":"stands"}},{"type":"Feature","geometry":{"type":"Point","coordinates":[-71.071374,42.436215]},"properties":{"Spaces":"12","Covered":"no","Rack type":"stands"}},{"type":"Feature","geometry":{"type":"Point","coordinates":[-71.082961,42.431204]},"properties":{"Spaces":"8","Covered":"no","Rack type":"stands"}},{"type":"Feature","geometry":{"type":"Point","coordinates":[-71.020413,42.429747]},"properties":{"Covered":"no","Rack type":"wave"}},{"type":"Feature","geometry":{"type":"Point","coordinates":[-71.089444,42.422766]},"properties":{"Spaces":"2","Covered":"no","Rack type":"wall_loops"}},{"type":"Feature","geometry":{"type":"Point","coordinates":[-71.06399,42.426163]},"properties":{"Spaces":"10","Covered":"no","Rack type":"stands"}},{"type":"Feature","geometry":{"type":"Point","coordinates":[-71.063931,42.426283]},"properties":{"Spaces":"12","Covered":"no","Rack type":"stands"}},{"type":"Feature","geometry":{"type":"Point","coordinates":[-71.082966,42.431208]},"properties":{}},{"type":"Feature","geometry":{"type":"Point","coordinates":[-71.052364,42.429139]},"properties":{"Spaces":"4","Covered":"no","Rack type":"stands"}},{"type":"Feature","geometry":{"type":"Point","coordinates":[-71.052492,42.428817]},"properties":{"Spaces":"4","Covered":"no","Rack type":"stands"}},{"type":"Feature","geometry":{"type":"Point","coordinates":[-71.065478,42.434404]},"properties":{"Spaces":"2","Covered":"no","Rack type":"stands"}},{"type":"Feature","geometry":{"type":"Point","coordinates":[-71.07077,42.436788]},"properties":{"Spaces":"16","Covered":"no","Rack type":"stands"}},{"type":"Feature","geometry":{"type":"Point","coordinates":[-71.070596,42.436768]},"properties":{"Spaces":"10","Covered":"no","Rack type":"stands"}},{"type":"Feature","geometry":{"type":"Point","coordinates":[-71.07055,42.43715]},"properties":{"Spaces":"12","Covered":"no","Rack type":"stands"}},{"type":"Feature","geometry":{"type":"Point","coordinates":[-71.07294,42.427291]},"properties":{"Spaces":"1","Covered":"no","Rack type":"stands"}},{"type":"Feature","geometry":{"type":"Point","coordinates":[-71.070622,42.427167]},"properties":{}},{"type":"Feature","geometry":{"type":"Point","coordinates":[-71.073498,42.426921]},"properties":{}},{"type":"Feature","geometry":{"type":"Point","coordinates":[-71.08903,42.423085]},"properties":{}},{"type":"Feature","geometry":{"type":"Point","coordinates":[-71.07271,42.427217]},"properties":{}},{"type":"Feature","geometry":{"type":"Point","coordinates":[-71.083458,42.420508]},"properties":{}},{"type":"Feature","geometry":{"type":"Point","coordinates":[-71.07387,42.427195]},"properties":{}},{"type":"Feature","geometry":{"type":"Point","coordinates":[-71.074467,42.426843]},"properties":{"Covered":"yes","Rack type":"shed"}},{"type":"Feature","geometry":{"type":"Point","coordinates":[-71.07315,42.427307]},"properties":{}},{"type":"Feature","geometry":{"type":"Point","coordinates":[-71.074379,42.426221]},"properties":{}},{"type":"Feature","geometry":{"type":"Point","coordinates":[-71.069873,42.427087]},"properties":{}},{"type":"Feature","geometry":{"type":"Point","coordinates":[-71.068403,42.426783]},"properties":{}},{"type":"Feature","geometry":{"type":"Point","coordinates":[-71.073195,42.426371]},"properties":{}},{"type":"Feature","geometry":{"type":"Point","coordinates":[-71.074493,42.42443]},"properties":{}},{"type":"Feature","geometry":{"type":"Point","coordinates":[-71.073937,42.427267]},"properties":{}},{"type":"Feature","geometry":{"type":"Point","coordinates":[-71.068947,42.426181]},"properties":{}},{"type":"Feature","geometry":{"type":"Point","coordinates":[-71.05849,42.412473]},"properties":{"Spaces":"11","Covered":"no","Rack type":"stands"}},{"type":"Feature","geometry":{"type":"Point","coordinates":[-71.060759,42.413672]},"properties":{"Spaces":"4","Covered":"no","Rack type":"stands"}},{"type":"Feature","geometry":{"type":"Point","coordinates":[-71.063711,42.409019]},"properties":{"Spaces":"6","Covered":"no","Rack type":"stands"}},{"type":"Feature","geometry":{"type":"Point","coordinates":[-71.066031,42.409504]},"properties":{"Spaces":"8","Covered":"no","Rack type":"stands"}},{"type":"Feature","geometry":{"type":"Point","coordinates":[-71.043061,42.436673]},"properties":{"Spaces":"4","Covered":"no"}},{"type":"Feature","geometry":{"type":"Point","coordinates":[-71.044124,42.426204]},"properties":{"Spaces":"10","Covered":"no","Rack type":"stands"}},{"type":"Feature","geometry":{"type":"Point","coordinates":[-71.031309,42.440198]},"properties":{"Spaces":"5","Covered":"no","Rack type":"stands"}},{"type":"Feature","geometry":{"type":"Point","coordinates":[-71.034819,42.43372]},"properties":{"Spaces":"8","Covered":"no","Rack type":"stands"}},{"type":"Feature","geometry":{"type":"Point","coordinates":[-71.034881,42.433498]},"properties":{"Spaces":"14","Covered":"no","Rack type":"stands"}},{"type":"Feature","geometry":{"type":"Point","coordinates":[-71.074465,42.426811]},"properties":{"Rack type":"shed"}},{"type":"Feature","geometry":{"type":"Point","coordinates":[-71.070433,42.437012]},"properties":{"Covered":"yes","Rack type":"shed"}}]}