{"type":"FeatureCollection","features":[{"type":"Feature","geometry":{"type":"Point","coordinates":[-71.037509,42.434247]},"properties":{"Date":"March 8, 2021","Severity":"Fatal","Involved":"Pedestrian","People killed":1,"People injured":1}},{"type":"Feature","geometry":{"type":"Point","coordinates":[-71.062001,42.42576]},"properties":{"Date":"December 14, 2021","Severity":"Serious injury","Involved":"Bicyclist","People injured":1}},{"type":"Feature","geometry":{"type":"Point","coordinates":[-71.045481,42.429921]},"properties":{"Date":"March 17, 2022","Severity":"Serious injury","Involved":"Pedestrian","People injured":1}},{"type":"Feature","geometry":{"type":"Point","coordinates":[-71.06634,42.420393]},"properties":{"Date":"March 30, 2022","Severity":"Serious injury","Involved":"Pedestrian / VU3: Pedestrian","People injured":1}},{"type":"Feature","geometry":{"type":"Point","coordinates":[-71.042389,42.423567]},"properties":{"Date":"April 14, 2022","Severity":"Serious injury","Involved":"Pedestrian","People injured":1}},{"type":"Feature","geometry":{"type":"Point","coordinates":[-71.074112,42.429297]},"properties":{"Date":"June 18, 2022","Severity":"Serious injury","Involved":"Pedestrian","People injured":1}},{"type":"Feature","geometry":{"type":"Point","coordinates":[-71.049683,42.430992]},"properties":{"Date":"July 19, 2022","Severity":"Serious injury","Involved":"Pedestrian","People injured":1}},{"type":"Feature","geometry":{"type":"Point","coordinates":[-71.081144,42.426985]},"properties":{"Date":"September 14, 2022","Severity":"Serious injury","Involved":"Bicyclist","People injured":1}},{"type":"Feature","geometry":{"type":"Point","coordinates":[-71.050473,42.431734]},"properties":{"Date":"November 3, 2022","Severity":"Serious injury","Involved":"Pedestrian","People injured":1}},{"type":"Feature","geometry":{"type":"Point","coordinates":[-71.061166,42.429456]},"properties":{"Date":"June 1, 2023","Severity":"Serious injury","Involved":"Other / VU3: Pedestrian","People injured":1}},{"type":"Feature","geometry":{"type":"Point","coordinates":[-71.063418,42.4251]},"properties":{"Date":"June 2, 2023","Severity":"Serious injury","Involved":"Bicyclist","People injured":1}},{"type":"Feature","geometry":{"type":"Point","coordinates":[-71.028473,42.430372]},"properties":{"Date":"September 12, 2023","Severity":"Serious injury","Involved":"Bicyclist","People injured":1}},{"type":"Feature","geometry":{"type":"Point","coordinates":[-71.079875,42.417657]},"properties":{"Date":"September 15, 2023","Severity":"Serious injury","Involved":"Pedestrian","People injured":1}},{"type":"Feature","geometry":{"type":"Point","coordinates":[-71.067611,42.430818]},"properties":{"Date":"October 19, 2023","Severity":"Fatal","Involved":"Pedestrian","People killed":1,"People injured":4}},{"type":"Feature","geometry":{"type":"Point","coordinates":[-71.041417,42.426998]},"properties":{"Date":"December 1, 2023","Severity":"Serious injury","Involved":"Pedestrian","People injured":1}},{"type":"Feature","geometry":{"type":"Point","coordinates":[-71.074112,42.429297]},"properties":{"Date":"January 17, 2024","Severity":"Serious injury","Involved":"Pedestrian / VU3: Pedestrian","People injured":2}},{"type":"Feature","geometry":{"type":"Point","coordinates":[-71.048145,42.431876]},"properties":{"Date":"March 7, 2024","Severity":"Serious injury","Involved":"Pedestrian","People injured":1}},{"type":"Feature","geometry":{"type":"Point","coordinates":[-71.05646,42.428372]},"properties":{"Date":"May 22, 2024","Severity":"Serious injury","Involved":"Pedestrian","People injured":1}},{"type":"Feature","geometry":{"type":"Point","coordinates":[-71.086483,42.425381]},"properties":{"Date":"August 21, 2024","Severity":"Serious injury","Involved":"Pedestrian","People injured":1}},{"type":"Feature","geometry":{"type":"Point","coordinates":[-71.023419,42.43368]},"properties":{"Date":"October 22, 2024","Severity":"Serious injury","Involved":"Pedestrian","People injured":1}},{"type":"Feature","geometry":{"type":"Point","coordinates":[-71.073893,42.425643]},"properties":{"Date":"October 31, 2024","Severity":"Serious injury","Involved":"Pedestrian","People injured":1}},{"type":"Feature","geometry":{"type":"Point","coordinates":[-71.042337,42.424595]},"properties":{"Date":"September 23, 2024","Severity":"Serious injury","Involved":"Pedestrian","People injured":1}},{"type":"Feature","geometry":{"type":"Point","coordinates":[-71.081065,42.426571]},"properties":{"Date":"December 13, 2024","Severity":"Serious injury","Involved":"Pedestrian","People injured":1}},{"type":"Feature","geometry":{"type":"Point","coordinates":[-71.06649,42.420604]},"properties":{"Date":"January 20, 2025","Severity":"Serious injury","Involved":"Pedestrian","People injured":1}},{"type":"Feature","geometry":{"type":"Point","coordinates":[-71.051622,42.429436]},"properties":{"Date":"March 7, 2025","Severity":"Serious injury","Involved":"Motorized Bicyclist","People injured":1}},{"type":"Feature","geometry":{"type":"Point","coordinates":[-71.063766,42.426097]},"properties":{"Date":"September 19, 2025","Severity":"Serious injury","Involved":"Bicyclist","People injured":1}},{"type":"Feature","geometry":{"type":"Point","coordinates":[-71.083008,42.430296]},"properties":{"Date":"June 5, 2026","Severity":"Serious injury","Involved":"Pedestrian","People injured":1}}]}