{"type":"FeatureCollection","features":[{"type":"Feature","geometry":{"type":"Point","coordinates":[-71.037509,42.434247]},"properties":{"Date":"March 8, 2021","Severity":"Fatal","Involved":"Pedestrian","People killed":1,"People injured":1}},{"type":"Feature","geometry":{"type":"Point","coordinates":[-71.053906,42.431224]},"properties":{"Date":"January 13, 2021","Severity":"Possible injury","Involved":"Pedestrian / VU3: Pedestrian","People injured":1}},{"type":"Feature","geometry":{"type":"Point","coordinates":[-71.049999,42.43186]},"properties":{"Date":"January 11, 2021","Severity":"Possible injury","Involved":"Pedestrian","People injured":1}},{"type":"Feature","geometry":{"type":"Point","coordinates":[-71.067681,42.424122]},"properties":{"Date":"February 12, 2021","Severity":"Minor injury","Involved":"Pedestrian","People injured":1}},{"type":"Feature","geometry":{"type":"Point","coordinates":[-71.066617,42.427074]},"properties":{"Date":"February 27, 2021","Severity":"Minor injury","Involved":"Pedestrian / VU3: Pedestrian","People injured":2}},{"type":"Feature","geometry":{"type":"Point","coordinates":[-71.060402,42.42652]},"properties":{"Date":"February 22, 2021","Severity":"Possible injury","Involved":"Bicyclist","People injured":1}},{"type":"Feature","geometry":{"type":"Point","coordinates":[-71.063653,42.419145]},"properties":{"Date":"March 1, 2021","Severity":"Minor injury","Involved":"Bicyclist","People injured":1}},{"type":"Feature","geometry":{"type":"Point","coordinates":[-71.029087,42.431243]},"properties":{"Date":"March 26, 2021","Severity":"No apparent injury","Involved":"Bicyclist"}},{"type":"Feature","geometry":{"type":"Point","coordinates":[-71.068278,42.423973]},"properties":{"Date":"March 27, 2021","Severity":"Possible injury","Involved":"Pedestrian","People injured":1}},{"type":"Feature","geometry":{"type":"Point","coordinates":[-71.067532,42.426005]},"properties":{"Date":"May 1, 2021","Severity":"Minor injury","Involved":"Pedestrian","People injured":1}},{"type":"Feature","geometry":{"type":"Point","coordinates":[-71.033236,42.43185]},"properties":{"Date":"May 13, 2021","Severity":"Possible injury","Involved":"Bicyclist","People injured":1}},{"type":"Feature","geometry":{"type":"Point","coordinates":[-71.080322,42.420019]},"properties":{"Date":"May 25, 2021","Severity":"Minor injury","Involved":"Pedestrian","People injured":1}},{"type":"Feature","geometry":{"type":"Point","coordinates":[-71.069776,42.430451]},"properties":{"Date":"May 25, 2021","Severity":"Minor injury","Involved":"Pedestrian","People injured":1}},{"type":"Feature","geometry":{"type":"Point","coordinates":[-71.063989,42.422404]},"properties":{"Date":"June 10, 2021","Severity":"Minor injury","Involved":"Bicyclist","People injured":1}},{"type":"Feature","geometry":{"type":"Point","coordinates":[-71.069237,42.425261]},"properties":{"Date":"June 19, 2021","Severity":"Minor injury","Involved":"Pedestrian","People injured":1}},{"type":"Feature","geometry":{"type":"Point","coordinates":[-71.076286,42.426826]},"properties":{"Date":"July 2, 2021","Severity":"Minor injury","Involved":"Pedestrian","People injured":1}},{"type":"Feature","geometry":{"type":"Point","coordinates":[-71.065475,42.41817]},"properties":{"Date":"June 26, 2021","Severity":"Possible injury","Involved":"Pedestrian","People injured":1}},{"type":"Feature","geometry":{"type":"Point","coordinates":[-71.071995,42.43537]},"properties":{"Date":"July 22, 2021","Severity":"Minor injury","Involved":"Pedestrian","People injured":1}},{"type":"Feature","geometry":{"type":"Point","coordinates":[-71.055871,42.424122]},"properties":{"Date":"August 3, 2021","Severity":"No apparent injury","Involved":"Pedestrian"}},{"type":"Feature","geometry":{"type":"Point","coordinates":[-71.031024,42.441336]},"properties":{"Date":"August 23, 2021","Severity":"Minor injury","Involved":"Pedestrian","People injured":1}},{"type":"Feature","geometry":{"type":"Point","coordinates":[-71.067817,42.43435]},"properties":{"Date":"September 14, 2021","Severity":"Possible injury","Involved":"Bicyclist","People injured":1}},{"type":"Feature","geometry":{"type":"Point","coordinates":[-71.068376,42.423946]},"properties":{"Date":"September 7, 2021","Severity":"Possible injury","Involved":"Bicyclist","People injured":1}},{"type":"Feature","geometry":{"type":"Point","coordinates":[-71.077355,42.427236]},"properties":{"Date":"August 31, 2021","Severity":"Minor injury","Involved":"Bicyclist","People injured":1}},{"type":"Feature","geometry":{"type":"Point","coordinates":[-71.072684,42.425538]},"properties":{"Date":"October 19, 2021","Severity":"Possible injury","Involved":"Pedestrian","People injured":1}},{"type":"Feature","geometry":{"type":"Point","coordinates":[-71.043875,42.431999]},"properties":{"Date":"October 23, 2021","Severity":"Minor injury","Involved":"Pedestrian","People injured":1}},{"type":"Feature","geometry":{"type":"Point","coordinates":[-71.08521,42.417934]},"properties":{"Date":"October 14, 2021","Severity":"No apparent injury","Involved":"Bicyclist"}},{"type":"Feature","geometry":{"type":"Point","coordinates":[-71.064788,42.42771]},"properties":{"Date":"December 6, 2021","Severity":"Minor injury","Involved":"Bicyclist","People injured":1}},{"type":"Feature","geometry":{"type":"Point","coordinates":[-71.05747,42.422747]},"properties":{"Date":"November 14, 2021","Severity":"Possible injury","Involved":"Pedestrian","People injured":1}},{"type":"Feature","geometry":{"type":"Point","coordinates":[-71.064227,42.418995]},"properties":{"Date":"November 18, 2021","Severity":"Minor injury","Involved":"Pedestrian","People injured":1}},{"type":"Feature","geometry":{"type":"Point","coordinates":[-71.067866,42.425217]},"properties":{"Date":"December 22, 2021","Severity":"Possible injury","Involved":"Pedestrian","People injured":1}},{"type":"Feature","geometry":{"type":"Point","coordinates":[-71.062001,42.42576]},"properties":{"Date":"December 14, 2021","Severity":"Serious injury","Involved":"Bicyclist","People injured":1}},{"type":"Feature","geometry":{"type":"Point","coordinates":[-71.060274,42.426603]},"properties":{"Date":"December 16, 2021","Severity":"Possible injury","Involved":"Pedestrian","People injured":1}},{"type":"Feature","geometry":{"type":"Point","coordinates":[-71.047032,42.429811]},"properties":{"Date":"December 18, 2021","Severity":"Possible injury","Involved":"Pedestrian","People injured":1}},{"type":"Feature","geometry":{"type":"Point","coordinates":[-71.065281,42.425312]},"properties":{"Date":"February 21, 2022","Severity":"No apparent injury","Involved":"Pedestrian"}},{"type":"Feature","geometry":{"type":"Point","coordinates":[-71.046391,42.429324]},"properties":{"Date":"March 2, 2022","Severity":"Possible injury","Involved":"Pedestrian","People injured":1}},{"type":"Feature","geometry":{"type":"Point","coordinates":[-71.046111,42.433551]},"properties":{"Date":"March 2, 2022","Severity":"Possible injury","Involved":"Pedestrian","People injured":1}},{"type":"Feature","geometry":{"type":"Point","coordinates":[-71.067611,42.430818]},"properties":{"Date":"March 11, 2022","Severity":"Minor injury","Involved":"Pedestrian","People injured":1}},{"type":"Feature","geometry":{"type":"Point","coordinates":[-71.049414,42.423203]},"properties":{"Date":"March 30, 2022","Severity":"Minor injury","Involved":"Pedestrian","People injured":1}},{"type":"Feature","geometry":{"type":"Point","coordinates":[-71.080517,42.42339]},"properties":{"Date":"April 2, 2022","Severity":"Possible injury","Involved":"Pedestrian / VU3: Other","People injured":1}},{"type":"Feature","geometry":{"type":"Point","coordinates":[-71.045481,42.429921]},"properties":{"Date":"March 17, 2022","Severity":"Serious injury","Involved":"Pedestrian","People injured":1}},{"type":"Feature","geometry":{"type":"Point","coordinates":[-71.06634,42.420393]},"properties":{"Date":"March 30, 2022","Severity":"Serious injury","Involved":"Pedestrian / VU3: Pedestrian","People injured":1}},{"type":"Feature","geometry":{"type":"Point","coordinates":[-71.042337,42.424595]},"properties":{"Date":"May 16, 2022","Severity":"Minor injury","Involved":"Bicyclist","People injured":1}},{"type":"Feature","geometry":{"type":"Point","coordinates":[-71.042389,42.423567]},"properties":{"Date":"April 14, 2022","Severity":"Serious injury","Involved":"Pedestrian","People injured":1}},{"type":"Feature","geometry":{"type":"Point","coordinates":[-71.042004,42.42546]},"properties":{"Date":"May 2, 2022","Severity":"Minor injury","Involved":"Pedestrian","People injured":1}},{"type":"Feature","geometry":{"type":"Point","coordinates":[-71.025715,42.432278]},"properties":{"Date":"May 27, 2022","Severity":"Minor injury","Involved":"Bicyclist","People injured":1}},{"type":"Feature","geometry":{"type":"Point","coordinates":[-71.033063,42.434593]},"properties":{"Date":"May 24, 2022","Severity":"Minor injury","Involved":"Pedestrian","People injured":1}},{"type":"Feature","geometry":{"type":"Point","coordinates":[-71.053656,42.423488]},"properties":{"Date":"May 12, 2022","Severity":"Minor injury","Involved":"Bicyclist","People injured":1}},{"type":"Feature","geometry":{"type":"Point","coordinates":[-71.040208,42.430299]},"properties":{"Date":"June 29, 2022","Severity":"No apparent injury","Involved":"Bicyclist"}},{"type":"Feature","geometry":{"type":"Point","coordinates":[-71.082407,42.422648]},"properties":{"Date":"July 1, 2022","Severity":"No apparent injury","Involved":"Bicyclist"}},{"type":"Feature","geometry":{"type":"Point","coordinates":[-71.074112,42.429297]},"properties":{"Date":"June 18, 2022","Severity":"Serious injury","Involved":"Pedestrian","People injured":1}},{"type":"Feature","geometry":{"type":"Point","coordinates":[-71.060794,42.422554]},"properties":{"Date":"June 28, 2022","Severity":"Minor injury","Involved":"Pedestrian","People injured":1}},{"type":"Feature","geometry":{"type":"Point","coordinates":[-71.039958,42.430968]},"properties":{"Date":"June 20, 2022","Severity":"No apparent injury","Involved":"Bicyclist / VU3: Other"}},{"type":"Feature","geometry":{"type":"Point","coordinates":[-71.073893,42.425643]},"properties":{"Date":"July 21, 2022","Severity":"Minor injury","Involved":"Bicyclist","People injured":1}},{"type":"Feature","geometry":{"type":"Point","coordinates":[-71.071473,42.425365]},"properties":{"Date":"July 11, 2022","Severity":"No apparent injury","Involved":"Pedestrian"}},{"type":"Feature","geometry":{"type":"Point","coordinates":[-71.049683,42.430992]},"properties":{"Date":"July 19, 2022","Severity":"Serious injury","Involved":"Pedestrian","People injured":1}},{"type":"Feature","geometry":{"type":"Point","coordinates":[-71.071477,42.436282]},"properties":{"Date":"July 27, 2022","Severity":"Minor injury","Involved":"Pedestrian","People injured":1}},{"type":"Feature","geometry":{"type":"Point","coordinates":[-71.067737,42.425212]},"properties":{"Date":"July 31, 2022","Severity":"Possible injury","Involved":"Pedestrian","People injured":1}},{"type":"Feature","geometry":{"type":"Point","coordinates":[-71.085948,42.425496]},"properties":{"Date":"August 15, 2022","Severity":"Possible injury","Involved":"Pedestrian","People injured":1}},{"type":"Feature","geometry":{"type":"Point","coordinates":[-71.064005,42.428044]},"properties":{"Date":"August 5, 2022","Severity":"Possible injury","Involved":"Pedestrian","People injured":1}},{"type":"Feature","geometry":{"type":"Point","coordinates":[-71.051622,42.429436]},"properties":{"Date":"August 10, 2022","Severity":"Possible injury","Involved":"Pedestrian / VU3: Pedestrian","People injured":1}},{"type":"Feature","geometry":{"type":"Point","coordinates":[-71.048035,42.43284]},"properties":{"Date":"July 24, 2022","Severity":"Minor injury","Involved":"Bicyclist","People injured":1}},{"type":"Feature","geometry":{"type":"Point","coordinates":[-71.060873,42.429607]},"properties":{"Date":"August 9, 2022","Severity":"Minor injury","Involved":"Pedestrian","People injured":1}},{"type":"Feature","geometry":{"type":"Point","coordinates":[-71.067691,42.424199]},"properties":{"Date":"August 18, 2022","Severity":"Possible injury","Involved":"Bicyclist","People injured":1}},{"type":"Feature","geometry":{"type":"Point","coordinates":[-71.059094,42.430448]},"properties":{"Date":"September 15, 2022","Severity":"Minor injury","Involved":"Bicyclist","People injured":1}},{"type":"Feature","geometry":{"type":"Point","coordinates":[-71.081144,42.426985]},"properties":{"Date":"September 14, 2022","Severity":"Serious injury","Involved":"Bicyclist","People injured":1}},{"type":"Feature","geometry":{"type":"Point","coordinates":[-71.073893,42.425643]},"properties":{"Date":"August 29, 2022","Severity":"Possible injury","Involved":"Bicyclist","People injured":1}},{"type":"Feature","geometry":{"type":"Point","coordinates":[-71.039895,42.431125]},"properties":{"Date":"September 2, 2022","Severity":"Minor injury","Involved":"Pedestrian","People injured":1}},{"type":"Feature","geometry":{"type":"Point","coordinates":[-71.05409,42.43919]},"properties":{"Date":"September 13, 2022","Severity":"Possible injury","Involved":"Pedestrian","People injured":1}},{"type":"Feature","geometry":{"type":"Point","coordinates":[-71.057019,42.429523]},"properties":{"Date":"September 19, 2022","Severity":"Minor injury","Involved":"Bicyclist","People injured":1}},{"type":"Feature","geometry":{"type":"Point","coordinates":[-71.024144,42.43298]},"properties":{"Date":"October 6, 2022","Severity":"Possible injury","Involved":"Bicyclist","People injured":1}},{"type":"Feature","geometry":{"type":"Point","coordinates":[-71.053865,42.43996]},"properties":{"Date":"September 28, 2022","Severity":"No apparent injury","Involved":"Pedestrian / VU3: Other"}},{"type":"Feature","geometry":{"type":"Point","coordinates":[-71.067681,42.424122]},"properties":{"Date":"October 7, 2022","Severity":"Minor injury","Involved":"Bicyclist","People injured":1}},{"type":"Feature","geometry":{"type":"Point","coordinates":[-71.050473,42.431734]},"properties":{"Date":"November 3, 2022","Severity":"Serious injury","Involved":"Pedestrian","People injured":1}},{"type":"Feature","geometry":{"type":"Point","coordinates":[-71.069218,42.430432]},"properties":{"Date":"November 3, 2022","Severity":"Possible injury","Involved":"Bicyclist","People injured":1}},{"type":"Feature","geometry":{"type":"Point","coordinates":[-71.074823,42.423268]},"properties":{"Date":"November 2, 2022","Severity":"Minor injury","Involved":"Bicyclist","People injured":1}},{"type":"Feature","geometry":{"type":"Point","coordinates":[-71.080517,42.42339]},"properties":{"Date":"November 16, 2022","Severity":"Minor injury","Involved":"Pedestrian","People injured":1}},{"type":"Feature","geometry":{"type":"Point","coordinates":[-71.062972,42.423253]},"properties":{"Date":"December 8, 2022","Severity":"Minor injury","Involved":"Pedestrian","People injured":1}},{"type":"Feature","geometry":{"type":"Point","coordinates":[-71.049683,42.430992]},"properties":{"Date":"December 16, 2022","Severity":"Minor injury","Involved":"Pedestrian","People injured":1}},{"type":"Feature","geometry":{"type":"Point","coordinates":[-71.05165,42.428198]},"properties":{"Date":"December 17, 2022","Severity":"Minor injury","Involved":"Pedestrian","People injured":1}},{"type":"Feature","geometry":{"type":"Point","coordinates":[-71.051622,42.429436]},"properties":{"Date":"January 15, 2023","Severity":"No apparent injury","Involved":"Pedestrian"}},{"type":"Feature","geometry":{"type":"Point","coordinates":[-71.079331,42.417651]},"properties":{"Date":"January 13, 2023","Severity":"Minor injury","Involved":"Pedestrian","People injured":1}},{"type":"Feature","geometry":{"type":"Point","coordinates":[-71.062719,42.423026]},"properties":{"Date":"February 9, 2023","Severity":"Minor injury","Involved":"Bicyclist","People injured":1}},{"type":"Feature","geometry":{"type":"Point","coordinates":[-71.03942,42.432422]},"properties":{"Date":"February 15, 2023","Severity":"Possible injury","Involved":"Pedestrian","People injured":1}},{"type":"Feature","geometry":{"type":"Point","coordinates":[-71.065878,42.426141]},"properties":{"Date":"January 3, 2023","Severity":"Minor injury","Involved":"Pedestrian","People injured":1}},{"type":"Feature","geometry":{"type":"Point","coordinates":[-71.085837,42.425522]},"properties":{"Date":"March 13, 2023","Severity":"Minor injury","Involved":"Bicyclist","People injured":1}},{"type":"Feature","geometry":{"type":"Point","coordinates":[-71.065281,42.425312]},"properties":{"Date":"March 14, 2023","Severity":"Minor injury","Involved":"Pedestrian","People injured":1}},{"type":"Feature","geometry":{"type":"Point","coordinates":[-71.071573,42.423531]},"properties":{"Date":"March 20, 2023","Severity":"Minor injury","Involved":"Bicyclist","People injured":1}},{"type":"Feature","geometry":{"type":"Point","coordinates":[-71.065945,42.419736]},"properties":{"Date":"March 24, 2023","Severity":"Minor injury","Involved":"Bicyclist","People injured":1}},{"type":"Feature","geometry":{"type":"Point","coordinates":[-71.069237,42.425261]},"properties":{"Date":"February 28, 2023","Severity":"Minor injury","Involved":"Pedestrian","People injured":1}},{"type":"Feature","geometry":{"type":"Point","coordinates":[-71.061166,42.429456]},"properties":{"Date":"June 1, 2023","Severity":"Serious injury","Involved":"Other / VU3: Pedestrian","People injured":1}},{"type":"Feature","geometry":{"type":"Point","coordinates":[-71.024144,42.43298]},"properties":{"Date":"May 31, 2023","Severity":"Minor injury","Involved":"Pedestrian","People injured":1}},{"type":"Feature","geometry":{"type":"Point","coordinates":[-71.075669,42.417641]},"properties":{"Date":"June 6, 2023","Severity":"Possible injury","Involved":"Pedestrian","People injured":1}},{"type":"Feature","geometry":{"type":"Point","coordinates":[-71.075669,42.417641]},"properties":{"Date":"June 10, 2023","Severity":"Possible injury","Involved":"Bicyclist","People injured":1}},{"type":"Feature","geometry":{"type":"Point","coordinates":[-71.039895,42.431125]},"properties":{"Date":"June 8, 2023","Severity":"Property damage only","Involved":"Bicyclist"}},{"type":"Feature","geometry":{"type":"Point","coordinates":[-71.081065,42.426571]},"properties":{"Date":"May 31, 2023","Severity":"Possible injury","Involved":"Pedestrian","People injured":1}},{"type":"Feature","geometry":{"type":"Point","coordinates":[-71.063418,42.4251]},"properties":{"Date":"June 2, 2023","Severity":"Serious injury","Involved":"Bicyclist","People injured":1}},{"type":"Feature","geometry":{"type":"Point","coordinates":[-71.072118,42.418062]},"properties":{"Date":"May 15, 2023","Severity":"Minor injury","Involved":"Pedestrian","People injured":1}},{"type":"Feature","geometry":{"type":"Point","coordinates":[-71.078083,42.426931]},"properties":{"Date":"May 25, 2023","Severity":"Possible injury","Involved":"Pedestrian","People injured":1}},{"type":"Feature","geometry":{"type":"Point","coordinates":[-71.040208,42.430299]},"properties":{"Date":"June 10, 2023","Severity":"Minor injury","Involved":"Bicyclist","People injured":1}},{"type":"Feature","geometry":{"type":"Point","coordinates":[-71.021523,42.436162]},"properties":{"Date":"June 28, 2023","Severity":"Possible injury","Involved":"Pedestrian","People injured":1}},{"type":"Feature","geometry":{"type":"Point","coordinates":[-71.067611,42.430818]},"properties":{"Date":"June 22, 2023","Severity":"Minor injury","Involved":"Pedestrian","People injured":1}},{"type":"Feature","geometry":{"type":"Point","coordinates":[-71.03932,42.432678]},"properties":{"Date":"July 25, 2023","Severity":"Minor injury","Involved":"Pedestrian","People injured":2}},{"type":"Feature","geometry":{"type":"Point","coordinates":[-71.087437,42.425167]},"properties":{"Date":"July 31, 2023","Severity":"Minor injury","Involved":"Bicyclist","People injured":1}},{"type":"Feature","geometry":{"type":"Point","coordinates":[-71.065281,42.425312]},"properties":{"Date":"July 21, 2023","Severity":"Minor injury","Involved":"Unknown / VU3: Pedestrian","People injured":1}},{"type":"Feature","geometry":{"type":"Point","coordinates":[-71.077236,42.427046]},"properties":{"Date":"July 12, 2023","Severity":"Minor injury","Involved":"Bicyclist","People injured":1}},{"type":"Feature","geometry":{"type":"Point","coordinates":[-71.056493,42.423529]},"properties":{"Date":"August 15, 2023","Severity":"Possible injury","Involved":"Bicyclist","People injured":1}},{"type":"Feature","geometry":{"type":"Point","coordinates":[-71.067342,42.426333]},"properties":{"Date":"August 12, 2023","Severity":"No apparent injury","Involved":"Bicyclist"}},{"type":"Feature","geometry":{"type":"Point","coordinates":[-71.054728,42.431119]},"properties":{"Date":"October 5, 2023","Severity":"Possible injury","Involved":"Pedestrian","People injured":1}},{"type":"Feature","geometry":{"type":"Point","coordinates":[-71.02415,42.432887]},"properties":{"Date":"September 27, 2023","Severity":"Minor injury","Involved":"Other / VU3: Pedestrian","People injured":2}},{"type":"Feature","geometry":{"type":"Point","coordinates":[-71.033853,42.438136]},"properties":{"Date":"September 13, 2023","Severity":"Possible injury","Involved":"Pedestrian / VU3: Pedestrian","People injured":2}},{"type":"Feature","geometry":{"type":"Point","coordinates":[-71.028473,42.430372]},"properties":{"Date":"September 12, 2023","Severity":"Serious injury","Involved":"Bicyclist","People injured":1}},{"type":"Feature","geometry":{"type":"Point","coordinates":[-71.073457,42.42684]},"properties":{"Date":"September 11, 2023","Severity":"Minor injury","Involved":"Pedestrian","People injured":1}},{"type":"Feature","geometry":{"type":"Point","coordinates":[-71.079875,42.417657]},"properties":{"Date":"September 15, 2023","Severity":"Serious injury","Involved":"Pedestrian","People injured":1}},{"type":"Feature","geometry":{"type":"Point","coordinates":[-71.067611,42.430818]},"properties":{"Date":"October 19, 2023","Severity":"Fatal","Involved":"Pedestrian","People killed":1,"People injured":4}},{"type":"Feature","geometry":{"type":"Point","coordinates":[-71.081271,42.417664]},"properties":{"Date":"December 26, 2023","Severity":"No apparent injury","Involved":"Motorized Bicyclist"}},{"type":"Feature","geometry":{"type":"Point","coordinates":[-71.065281,42.425312]},"properties":{"Date":"December 16, 2023","Severity":"Minor injury","Involved":"Bicyclist","People injured":1}},{"type":"Feature","geometry":{"type":"Point","coordinates":[-71.065373,42.425438]},"properties":{"Date":"October 13, 2023","Severity":"No apparent injury","Involved":"Bicyclist"}},{"type":"Feature","geometry":{"type":"Point","coordinates":[-71.041417,42.426998]},"properties":{"Date":"December 1, 2023","Severity":"Serious injury","Involved":"Pedestrian","People injured":1}},{"type":"Feature","geometry":{"type":"Point","coordinates":[-71.058703,42.421745]},"properties":{"Date":"December 8, 2023","Severity":"Minor injury","Involved":"Pedestrian","People injured":1}},{"type":"Feature","geometry":{"type":"Point","coordinates":[-71.041909,42.43393]},"properties":{"Date":"December 1, 2023","Severity":"Minor injury","Involved":"Pedestrian","People injured":1}},{"type":"Feature","geometry":{"type":"Point","coordinates":[-71.080517,42.42339]},"properties":{"Date":"October 12, 2023","Severity":"No apparent injury","Involved":"Bicyclist"}},{"type":"Feature","geometry":{"type":"Point","coordinates":[-71.061799,42.425861]},"properties":{"Date":"October 11, 2023","Severity":"Possible injury","Involved":"Pedestrian","People injured":1}},{"type":"Feature","geometry":{"type":"Point","coordinates":[-71.080662,42.424028]},"properties":{"Date":"October 17, 2023","Severity":"Possible injury","Involved":"Pedestrian","People injured":1}},{"type":"Feature","geometry":{"type":"Point","coordinates":[-71.063036,42.423289]},"properties":{"Date":"January 29, 2024","Severity":"Minor injury","Involved":"Pedestrian","People injured":1}},{"type":"Feature","geometry":{"type":"Point","coordinates":[-71.064662,42.424472]},"properties":{"Date":"January 29, 2024","Severity":"No apparent injury","Involved":"Pedestrian"}},{"type":"Feature","geometry":{"type":"Point","coordinates":[-71.07377,42.425945]},"properties":{"Date":"January 30, 2024","Severity":"Possible injury","Involved":"Bicyclist","People injured":1}},{"type":"Feature","geometry":{"type":"Point","coordinates":[-71.042192,42.424967]},"properties":{"Date":"January 28, 2024","Severity":"Possible injury","Involved":"Pedestrian","People injured":1}},{"type":"Feature","geometry":{"type":"Point","coordinates":[-71.074112,42.429297]},"properties":{"Date":"January 17, 2024","Severity":"Serious injury","Involved":"Pedestrian / VU3: Pedestrian","People injured":2}},{"type":"Feature","geometry":{"type":"Point","coordinates":[-71.059594,42.430227]},"properties":{"Date":"January 12, 2024","Severity":"Minor injury","Involved":"Pedestrian","People injured":1}},{"type":"Feature","geometry":{"type":"Point","coordinates":[-71.07128,42.423556]},"properties":{"Date":"January 14, 2024","Severity":"Minor injury","Involved":"Pedestrian","People injured":1}},{"type":"Feature","geometry":{"type":"Point","coordinates":[-71.085273,42.417942]},"properties":{"Date":"January 4, 2024","Severity":"Minor injury","Involved":"Bicyclist","People injured":1}},{"type":"Feature","geometry":{"type":"Point","coordinates":[-71.083121,42.417651]},"properties":{"Date":"February 26, 2024","Severity":"Possible injury","Involved":"Bicyclist","People injured":1}},{"type":"Feature","geometry":{"type":"Point","coordinates":[-71.055109,42.420269]},"properties":{"Date":"February 12, 2024","Severity":"Minor injury","Involved":"Pedestrian","People injured":1}},{"type":"Feature","geometry":{"type":"Point","coordinates":[-71.079558,42.415302]},"properties":{"Date":"February 14, 2024","Severity":"Minor injury","Involved":"Pedestrian","People injured":1}},{"type":"Feature","geometry":{"type":"Point","coordinates":[-71.040066,42.430324]},"properties":{"Date":"February 13, 2024","Severity":"Minor injury","Involved":"Pedestrian","People injured":1}},{"type":"Feature","geometry":{"type":"Point","coordinates":[-71.042608,42.423856]},"properties":{"Date":"March 24, 2024","Severity":"No apparent injury","Involved":"Pedestrian"}},{"type":"Feature","geometry":{"type":"Point","coordinates":[-71.079511,42.431394]},"properties":{"Date":"March 6, 2024","Severity":"Possible injury","Involved":"Pedestrian","People injured":1}},{"type":"Feature","geometry":{"type":"Point","coordinates":[-71.064542,42.420923]},"properties":{"Date":"March 7, 2024","Severity":"Minor injury","Involved":"Pedestrian","People injured":1}},{"type":"Feature","geometry":{"type":"Point","coordinates":[-71.042437,42.430144]},"properties":{"Date":"March 7, 2024","Severity":"Minor injury","Involved":"Pedestrian","People injured":1}},{"type":"Feature","geometry":{"type":"Point","coordinates":[-71.073893,42.425643]},"properties":{"Date":"April 25, 2024","Severity":"Minor injury","Involved":"Pedestrian","People injured":1}},{"type":"Feature","geometry":{"type":"Point","coordinates":[-71.042164,42.425042]},"properties":{"Date":"April 9, 2024","Severity":"Minor injury","Involved":"Pedestrian","People injured":1}},{"type":"Feature","geometry":{"type":"Point","coordinates":[-71.024144,42.43298]},"properties":{"Date":"April 10, 2024","Severity":"Minor injury","Involved":"Bicyclist","People injured":1}},{"type":"Feature","geometry":{"type":"Point","coordinates":[-71.048145,42.431876]},"properties":{"Date":"March 7, 2024","Severity":"Serious injury","Involved":"Pedestrian","People injured":1}},{"type":"Feature","geometry":{"type":"Point","coordinates":[-71.075767,42.415908]},"properties":{"Date":"May 9, 2024","Severity":"No apparent injury","Involved":"Bicyclist"}},{"type":"Feature","geometry":{"type":"Point","coordinates":[-71.079875,42.417657]},"properties":{"Date":"May 28, 2024","Severity":"Minor injury","Involved":"Pedestrian","People injured":1}},{"type":"Feature","geometry":{"type":"Point","coordinates":[-71.05646,42.428372]},"properties":{"Date":"May 22, 2024","Severity":"Serious injury","Involved":"Pedestrian","People injured":1}},{"type":"Feature","geometry":{"type":"Point","coordinates":[-71.039958,42.430968]},"properties":{"Date":"May 18, 2024","Severity":"Minor injury","Involved":"Pedestrian","People injured":1}},{"type":"Feature","geometry":{"type":"Point","coordinates":[-71.062012,42.43595]},"properties":{"Date":"May 3, 2024","Severity":"Minor injury","Involved":"Pedestrian","People injured":1}},{"type":"Feature","geometry":{"type":"Point","coordinates":[-71.073893,42.425643]},"properties":{"Date":"May 18, 2024","Severity":"Possible injury","Involved":"Pedestrian","People injured":1}},{"type":"Feature","geometry":{"type":"Point","coordinates":[-71.045683,42.431046]},"properties":{"Date":"June 5, 2024","Severity":"Minor injury","Involved":"Bicyclist","People injured":1}},{"type":"Feature","geometry":{"type":"Point","coordinates":[-71.059882,42.416396]},"properties":{"Date":"June 2, 2024","Severity":"No apparent injury","Involved":"Pedestrian"}},{"type":"Feature","geometry":{"type":"Point","coordinates":[-71.067611,42.430818]},"properties":{"Date":"June 7, 2024","Severity":"Minor injury","Involved":"Pedestrian","People injured":1}},{"type":"Feature","geometry":{"type":"Point","coordinates":[-71.079875,42.417657]},"properties":{"Date":"June 3, 2024","Severity":"Minor injury","Involved":"Pedestrian","People injured":1}},{"type":"Feature","geometry":{"type":"Point","coordinates":[-71.062113,42.419833]},"properties":{"Date":"June 13, 2024","Severity":"Minor injury","Involved":"Pedestrian","People injured":1}},{"type":"Feature","geometry":{"type":"Point","coordinates":[-71.065281,42.425312]},"properties":{"Date":"July 6, 2024","Severity":"No apparent injury","Involved":"Pedestrian"}},{"type":"Feature","geometry":{"type":"Point","coordinates":[-71.073848,42.425748]},"properties":{"Date":"July 15, 2024","Severity":"Minor injury","Involved":"Bicyclist / VU3: Bicyclist","People injured":2}},{"type":"Feature","geometry":{"type":"Point","coordinates":[-71.067737,42.425212]},"properties":{"Date":"July 31, 2024","Severity":"No apparent injury","Involved":"Bicyclist"}},{"type":"Feature","geometry":{"type":"Point","coordinates":[-71.047563,42.434602]},"properties":{"Date":"July 11, 2024","Severity":"Minor injury","Involved":"Pedestrian","People injured":1}},{"type":"Feature","geometry":{"type":"Point","coordinates":[-71.056294,42.423681]},"properties":{"Date":"July 2, 2024","Severity":"Possible injury","Involved":"Bicyclist","People injured":1}},{"type":"Feature","geometry":{"type":"Point","coordinates":[-71.070377,42.432054]},"properties":{"Date":"July 4, 2024","Severity":"Minor injury","Involved":"Pedestrian","People injured":1}},{"type":"Feature","geometry":{"type":"Point","coordinates":[-71.067278,42.42315]},"properties":{"Date":"August 26, 2024","Severity":"Possible injury","Involved":"Pedestrian","People injured":1}},{"type":"Feature","geometry":{"type":"Point","coordinates":[-71.054247,42.431183]},"properties":{"Date":"August 30, 2024","Severity":"Possible injury","Involved":"Pedestrian","People injured":1}},{"type":"Feature","geometry":{"type":"Point","coordinates":[-71.086483,42.425381]},"properties":{"Date":"August 21, 2024","Severity":"Serious injury","Involved":"Pedestrian","People injured":1}},{"type":"Feature","geometry":{"type":"Point","coordinates":[-71.068289,42.426701]},"properties":{"Date":"August 21, 2024","Severity":"No apparent injury","Involved":"Bicyclist"}},{"type":"Feature","geometry":{"type":"Point","coordinates":[-71.023419,42.43368]},"properties":{"Date":"October 22, 2024","Severity":"Serious injury","Involved":"Pedestrian","People injured":1}},{"type":"Feature","geometry":{"type":"Point","coordinates":[-71.065373,42.425438]},"properties":{"Date":"October 20, 2024","Severity":"Minor injury","Involved":"Bicyclist","People injured":1}},{"type":"Feature","geometry":{"type":"Point","coordinates":[-71.073893,42.425643]},"properties":{"Date":"October 31, 2024","Severity":"Serious injury","Involved":"Pedestrian","People injured":1}},{"type":"Feature","geometry":{"type":"Point","coordinates":[-71.065878,42.426141]},"properties":{"Date":"October 30, 2024","Severity":"Minor injury","Involved":"Bicyclist","People injured":1}},{"type":"Feature","geometry":{"type":"Point","coordinates":[-71.050341,42.429567]},"properties":{"Date":"September 23, 2024","Severity":"Possible injury","Involved":"Pedestrian","People injured":1}},{"type":"Feature","geometry":{"type":"Point","coordinates":[-71.057116,42.418483]},"properties":{"Date":"September 26, 2024","Severity":"Minor injury","Involved":"Pedestrian","People injured":1}},{"type":"Feature","geometry":{"type":"Point","coordinates":[-71.042337,42.424595]},"properties":{"Date":"September 23, 2024","Severity":"Serious injury","Involved":"Pedestrian","People injured":1}},{"type":"Feature","geometry":{"type":"Point","coordinates":[-71.049278,42.423481]},"properties":{"Date":"September 15, 2024","Severity":"Minor injury","Involved":"Pedestrian","People injured":1}},{"type":"Feature","geometry":{"type":"Point","coordinates":[-71.073893,42.425643]},"properties":{"Date":"September 18, 2024","Severity":"Possible injury","Involved":"Bicyclist","People injured":1}},{"type":"Feature","geometry":{"type":"Point","coordinates":[-71.035796,42.43413]},"properties":{"Date":"September 10, 2024","Severity":"Minor injury","Involved":"Pedestrian","People injured":1}},{"type":"Feature","geometry":{"type":"Point","coordinates":[-71.045842,42.431837]},"properties":{"Date":"September 5, 2024","Severity":"Minor injury","Involved":"Pedestrian","People injured":1}},{"type":"Feature","geometry":{"type":"Point","coordinates":[-71.073393,42.427327]},"properties":{"Date":"September 30, 2024","Severity":"Possible injury","Involved":"Bicyclist","People injured":1}},{"type":"Feature","geometry":{"type":"Point","coordinates":[-71.055529,42.426762]},"properties":{"Date":"September 13, 2024","Severity":"Minor injury","Involved":"Pedestrian","People injured":1}},{"type":"Feature","geometry":{"type":"Point","coordinates":[-71.040208,42.430299]},"properties":{"Date":"November 24, 2024","Severity":"Possible injury","Involved":"Bicyclist","People injured":1}},{"type":"Feature","geometry":{"type":"Point","coordinates":[-71.072162,42.433351]},"properties":{"Date":"November 16, 2024","Severity":"Minor injury","Involved":"Pedestrian","People injured":1}},{"type":"Feature","geometry":{"type":"Point","coordinates":[-71.061731,42.422879]},"properties":{"Date":"November 5, 2024","Severity":"Possible injury","Involved":"Pedestrian","People injured":1}},{"type":"Feature","geometry":{"type":"Point","coordinates":[-71.063117,42.425247]},"properties":{"Date":"November 6, 2024","Severity":"Minor injury","Involved":"Bicyclist","People injured":1}},{"type":"Feature","geometry":{"type":"Point","coordinates":[-71.073393,42.427327]},"properties":{"Date":"November 4, 2024","Severity":"Minor injury","Involved":"Pedestrian","People injured":1}},{"type":"Feature","geometry":{"type":"Point","coordinates":[-71.061679,42.429718]},"properties":{"Date":"November 1, 2024","Severity":"Minor injury","Involved":"Bicyclist","People injured":1}},{"type":"Feature","geometry":{"type":"Point","coordinates":[-71.052687,42.42424]},"properties":{"Date":"December 26, 2024","Severity":"Minor injury","Involved":"Pedestrian","People injured":1}},{"type":"Feature","geometry":{"type":"Point","coordinates":[-71.067245,42.429132]},"properties":{"Date":"December 11, 2024","Severity":"Minor injury","Involved":"Pedestrian","People injured":1}},{"type":"Feature","geometry":{"type":"Point","coordinates":[-71.081065,42.426571]},"properties":{"Date":"December 13, 2024","Severity":"Serious injury","Involved":"Pedestrian","People injured":1}},{"type":"Feature","geometry":{"type":"Point","coordinates":[-71.074298,42.427308]},"properties":{"Date":"December 3, 2024","Severity":"Minor injury","Involved":"Pedestrian","People injured":1}},{"type":"Feature","geometry":{"type":"Point","coordinates":[-71.057713,42.421402]},"properties":{"Date":"December 12, 2024","Severity":"Minor injury","Involved":"Pedestrian","People injured":1}},{"type":"Feature","geometry":{"type":"Point","coordinates":[-71.069218,42.430432]},"properties":{"Date":"January 15, 2025","Severity":"Minor injury","Involved":"Pedestrian","People injured":1}},{"type":"Feature","geometry":{"type":"Point","coordinates":[-71.067737,42.425212]},"properties":{"Date":"January 15, 2025","Severity":"Minor injury","Involved":"Pedestrian","People injured":1}},{"type":"Feature","geometry":{"type":"Point","coordinates":[-71.06649,42.420604]},"properties":{"Date":"January 20, 2025","Severity":"Serious injury","Involved":"Pedestrian","People injured":1}},{"type":"Feature","geometry":{"type":"Point","coordinates":[-71.045266,42.434641]},"properties":{"Date":"January 8, 2025","Severity":"Minor injury","Involved":"Pedestrian","People injured":1}},{"type":"Feature","geometry":{"type":"Point","coordinates":[-71.065281,42.425312]},"properties":{"Date":"February 19, 2025","Severity":"Possible injury","Involved":"Pedestrian / VU3: Pedestrian","People injured":2}},{"type":"Feature","geometry":{"type":"Point","coordinates":[-71.051622,42.429436]},"properties":{"Date":"March 7, 2025","Severity":"Serious injury","Involved":"Motorized Bicyclist","People injured":1}},{"type":"Feature","geometry":{"type":"Point","coordinates":[-71.041743,42.42616]},"properties":{"Date":"March 26, 2025","Severity":"Possible injury","Involved":"Bicyclist","People injured":1}},{"type":"Feature","geometry":{"type":"Point","coordinates":[-71.031768,42.439794]},"properties":{"Date":"March 27, 2025","Severity":"Minor injury","Involved":"Pedestrian","People injured":1}},{"type":"Feature","geometry":{"type":"Point","coordinates":[-71.053143,42.426275]},"properties":{"Date":"March 25, 2025","Severity":"No apparent injury","Involved":"Pedestrian"}},{"type":"Feature","geometry":{"type":"Point","coordinates":[-71.061089,42.42469]},"properties":{"Date":"March 8, 2025","Severity":"Minor injury","Involved":"Pedestrian","People injured":1}},{"type":"Feature","geometry":{"type":"Point","coordinates":[-71.076788,42.422323]},"properties":{"Date":"March 3, 2025","Severity":"Possible injury","Involved":"Pedestrian","People injured":1}},{"type":"Feature","geometry":{"type":"Point","coordinates":[-71.081501,42.417664]},"properties":{"Date":"April 23, 2025","Severity":"Minor injury","Involved":"Bicyclist","People injured":1}},{"type":"Feature","geometry":{"type":"Point","coordinates":[-71.073393,42.427327]},"properties":{"Date":"April 14, 2025","Severity":"Minor injury","Involved":"Pedestrian","People injured":1}},{"type":"Feature","geometry":{"type":"Point","coordinates":[-71.067737,42.425212]},"properties":{"Date":"April 5, 2025","Severity":"Minor injury","Involved":"Pedestrian","People injured":1}},{"type":"Feature","geometry":{"type":"Point","coordinates":[-71.058551,42.427455]},"properties":{"Date":"April 17, 2025","Severity":"Minor injury","Involved":"Bicyclist","People injured":1}},{"type":"Feature","geometry":{"type":"Point","coordinates":[-71.048035,42.43284]},"properties":{"Date":"April 11, 2025","Severity":"Minor injury","Involved":"Pedestrian","People injured":1}},{"type":"Feature","geometry":{"type":"Point","coordinates":[-71.024144,42.43298]},"properties":{"Date":"May 30, 2025","Severity":"Minor injury","Involved":"Bicyclist","People injured":1}},{"type":"Feature","geometry":{"type":"Point","coordinates":[-71.065738,42.427357]},"properties":{"Date":"May 29, 2025","Severity":"Minor injury","Involved":"Bicyclist","People injured":1}},{"type":"Feature","geometry":{"type":"Point","coordinates":[-71.042437,42.430144]},"properties":{"Date":"May 27, 2025","Severity":"No apparent injury","Involved":"Bicyclist"}},{"type":"Feature","geometry":{"type":"Point","coordinates":[-71.039492,42.432211]},"properties":{"Date":"May 28, 2025","Severity":"No apparent injury","Involved":"Pedestrian"}},{"type":"Feature","geometry":{"type":"Point","coordinates":[-71.059451,42.427042]},"properties":{"Date":"May 11, 2025","Severity":"Minor injury","Involved":"Pedestrian","People injured":4}},{"type":"Feature","geometry":{"type":"Point","coordinates":[-71.055983,42.42968]},"properties":{"Date":"May 8, 2025","Severity":"Minor injury","Involved":"Bicyclist","People injured":1}},{"type":"Feature","geometry":{"type":"Point","coordinates":[-71.075313,42.421823]},"properties":{"Date":"June 28, 2025","Severity":"Minor injury","Involved":"Pedestrian","People injured":1}},{"type":"Feature","geometry":{"type":"Point","coordinates":[-71.059775,42.430144]},"properties":{"Date":"June 7, 2025","Severity":"No apparent injury","Involved":"Bicyclist"}},{"type":"Feature","geometry":{"type":"Point","coordinates":[-71.055221,42.428262]},"properties":{"Date":"August 8, 2025","Severity":"No apparent injury","Involved":"Pedestrian"}},{"type":"Feature","geometry":{"type":"Point","coordinates":[-71.024526,42.432685]},"properties":{"Date":"August 28, 2025","Severity":"Minor injury","Involved":"Pedestrian","People injured":1}},{"type":"Feature","geometry":{"type":"Point","coordinates":[-71.045599,42.430565]},"properties":{"Date":"August 22, 2025","Severity":"Minor injury","Involved":"Bicyclist","People injured":1}},{"type":"Feature","geometry":{"type":"Point","coordinates":[-71.023435,42.439831]},"properties":{"Date":"August 22, 2025","Severity":"No apparent injury","Involved":"Pedestrian"}},{"type":"Feature","geometry":{"type":"Point","coordinates":[-71.029881,42.44323]},"properties":{"Date":"August 3, 2025","Severity":"Minor injury","Involved":"Pedestrian","People injured":1}},{"type":"Feature","geometry":{"type":"Point","coordinates":[-71.081645,42.430425]},"properties":{"Date":"July 22, 2025","Severity":"Minor injury","Involved":"Pedestrian / VU3: Pedestrian","People injured":2}},{"type":"Feature","geometry":{"type":"Point","coordinates":[-71.066018,42.419895]},"properties":{"Date":"August 1, 2025","Severity":"Minor injury","Involved":"Pedestrian","People injured":1}},{"type":"Feature","geometry":{"type":"Point","coordinates":[-71.077664,42.417251]},"properties":{"Date":"July 28, 2025","Severity":"Minor injury","Involved":"Bicyclist","People injured":1}},{"type":"Feature","geometry":{"type":"Point","coordinates":[-71.063146,42.423352]},"properties":{"Date":"July 18, 2025","Severity":"Minor injury","Involved":"Pedestrian","People injured":1}},{"type":"Feature","geometry":{"type":"Point","coordinates":[-71.077996,42.417642]},"properties":{"Date":"July 13, 2025","Severity":"Minor injury","Involved":"Bicyclist","People injured":1}},{"type":"Feature","geometry":{"type":"Point","coordinates":[-71.063766,42.426097]},"properties":{"Date":"September 19, 2025","Severity":"Serious injury","Involved":"Bicyclist","People injured":1}},{"type":"Feature","geometry":{"type":"Point","coordinates":[-71.067482,42.423715]},"properties":{"Date":"September 14, 2025","Severity":"Minor injury","Involved":"Pedestrian","People injured":1}},{"type":"Feature","geometry":{"type":"Point","coordinates":[-71.067403,42.429956]},"properties":{"Date":"September 11, 2025","Severity":"Minor injury","Involved":"Motorized Bicyclist","People injured":1}},{"type":"Feature","geometry":{"type":"Point","coordinates":[-71.042639,42.423767]},"properties":{"Date":"November 27, 2025","Severity":"Possible injury","Involved":"Pedestrian","People injured":2}},{"type":"Feature","geometry":{"type":"Point","coordinates":[-71.058015,42.430921]},"properties":{"Date":"November 4, 2025","Severity":"Minor injury","Involved":"Pedestrian","People injured":1}},{"type":"Feature","geometry":{"type":"Point","coordinates":[-71.054781,42.425783]},"properties":{"Date":"November 3, 2025","Severity":"Possible injury","Involved":"Pedestrian / VU3: Pedestrian","People injured":1}},{"type":"Feature","geometry":{"type":"Point","coordinates":[-71.050818,42.427607]},"properties":{"Date":"December 16, 2025","Severity":"Minor injury","Involved":"Bicyclist","People injured":1}},{"type":"Feature","geometry":{"type":"Point","coordinates":[-71.067719,42.42534]},"properties":{"Date":"December 19, 2025","Severity":"Possible injury","Involved":"Pedestrian","People injured":1}},{"type":"Feature","geometry":{"type":"Point","coordinates":[-71.057081,42.429642]},"properties":{"Date":"December 18, 2025","Severity":"Minor injury","Involved":"Bicyclist","People injured":1}},{"type":"Feature","geometry":{"type":"Point","coordinates":[-71.074823,42.423268]},"properties":{"Date":"December 11, 2025","Severity":"Possible injury","Involved":"Bicyclist","People injured":1}},{"type":"Feature","geometry":{"type":"Point","coordinates":[-71.038756,42.434222]},"properties":{"Date":"December 9, 2025","Severity":"No apparent injury","Involved":"Bicyclist"}},{"type":"Feature","geometry":{"type":"Point","coordinates":[-71.075703,42.416102]},"properties":{"Date":"December 3, 2025","Severity":"Minor injury","Involved":"Pedestrian","People injured":1}},{"type":"Feature","geometry":{"type":"Point","coordinates":[-71.021523,42.436162]},"properties":{"Date":"January 7, 2026","Severity":"Minor injury","Involved":"Pedestrian","People injured":1}},{"type":"Feature","geometry":{"type":"Point","coordinates":[-71.079092,42.428842]},"properties":{"Date":"January 12, 2026","Severity":"Minor injury","Involved":"Pedestrian","People injured":1}},{"type":"Feature","geometry":{"type":"Point","coordinates":[-71.067122,42.426737]},"properties":{"Date":"January 22, 2026","Severity":"Minor injury","Involved":"Pedestrian","People injured":1}},{"type":"Feature","geometry":{"type":"Point","coordinates":[-71.059744,42.430158]},"properties":{"Date":"January 9, 2026","Severity":"Minor injury","Involved":"Pedestrian","People injured":1}},{"type":"Feature","geometry":{"type":"Point","coordinates":[-71.0677,42.435707]},"properties":{"Date":"February 20, 2026","Severity":"Minor injury","Involved":"Pedestrian","People injured":1}},{"type":"Feature","geometry":{"type":"Point","coordinates":[-71.070528,42.426465]},"properties":{"Date":"February 12, 2026","Severity":"Minor injury","Involved":"Bicyclist","People injured":1}},{"type":"Feature","geometry":{"type":"Point","coordinates":[-71.062243,42.43591]},"properties":{"Date":"March 6, 2026","Severity":"Minor injury","Involved":"Pedestrian","People injured":1}},{"type":"Feature","geometry":{"type":"Point","coordinates":[-71.060873,42.429607]},"properties":{"Date":"March 27, 2026","Severity":"Minor injury","Involved":"Pedestrian","People injured":1}},{"type":"Feature","geometry":{"type":"Point","coordinates":[-71.029149,42.431691]},"properties":{"Date":"April 1, 2026","Severity":"Minor injury","Involved":"Bicyclist","People injured":1}},{"type":"Feature","geometry":{"type":"Point","coordinates":[-71.06727,42.423009]},"properties":{"Date":"April 12, 2026","Severity":"Minor injury","Involved":"Bicyclist","People injured":1}},{"type":"Feature","geometry":{"type":"Point","coordinates":[-71.025337,42.43211]},"properties":{"Date":"April 20, 2026","Severity":"Possible injury","Involved":"Pedestrian","People injured":1}},{"type":"Feature","geometry":{"type":"Point","coordinates":[-71.067611,42.430818]},"properties":{"Date":"April 21, 2026","Severity":"No apparent injury","Involved":"Bicyclist"}},{"type":"Feature","geometry":{"type":"Point","coordinates":[-71.048329,42.439663]},"properties":{"Date":"April 15, 2026","Severity":"No apparent injury","Involved":"Pedestrian"}},{"type":"Feature","geometry":{"type":"Point","coordinates":[-71.0457,42.431132]},"properties":{"Date":"April 27, 2026","Severity":"Possible injury","Involved":"Motorized Bicyclist","People injured":1}},{"type":"Feature","geometry":{"type":"Point","coordinates":[-71.039892,42.431133]},"properties":{"Date":"May 21, 2026","Severity":"No apparent injury","Involved":"Pedestrian"}},{"type":"Feature","geometry":{"type":"Point","coordinates":[-71.067403,42.429956]},"properties":{"Date":"May 31, 2026","Severity":"Minor injury","Involved":"Bicyclist","People injured":1}},{"type":"Feature","geometry":{"type":"Point","coordinates":[-71.034835,42.437822]},"properties":{"Date":"May 23, 2026","Severity":"Minor injury","Involved":"Pedestrian","People injured":1}},{"type":"Feature","geometry":{"type":"Point","coordinates":[-71.083008,42.430296]},"properties":{"Date":"June 5, 2026","Severity":"Serious injury","Involved":"Pedestrian","People injured":1}},{"type":"Feature","geometry":{"type":"Point","coordinates":[-71.029781,42.443346]},"properties":{"Date":"June 20, 2026","Severity":"Minor injury","Involved":"Pedestrian","People injured":1}},{"type":"Feature","geometry":{"type":"Point","coordinates":[-71.066354,42.421785]},"properties":{"Date":"June 11, 2026","Severity":"Minor injury","Involved":"Bicyclist","People injured":1}},{"type":"Feature","geometry":{"type":"Point","coordinates":[-71.067737,42.425212]},"properties":{"Date":"June 26, 2026","Severity":"Possible injury","Involved":"Pedestrian","People injured":1}},{"type":"Feature","geometry":{"type":"Point","coordinates":[-71.041147,42.427732]},"properties":{"Date":"July 24, 2026","Severity":"Minor injury","Involved":"Motorized Bicyclist","People injured":1}},{"type":"Feature","geometry":{"type":"Point","coordinates":[-71.045683,42.431046]},"properties":{"Date":"July 8, 2026","Severity":"Minor injury","Involved":"Bicyclist","People injured":1}},{"type":"Feature","geometry":{"type":"Point","coordinates":[-71.030259,42.44279]},"properties":{"Date":"July 13, 2026","Severity":"Minor injury","Involved":"Bicyclist","People injured":1}},{"type":"Feature","geometry":{"type":"Point","coordinates":[-71.07523,42.429198]},"properties":{"Date":"July 8, 2026","Severity":"Possible injury","Involved":"Bicyclist","People injured":1}}]}