{
  "type": "FeatureCollection",
  "features": [
    {
      "type": "Feature",
      "geometry": {
        "type": "LineString",
        "coordinates": [
          [
            -71.0699527,
            42.4354407
          ],
          [
            -71.0700483,
            42.4359281
          ],
          [
            -71.0700555,
            42.4360426
          ],
          [
            -71.0700104,
            42.4362104
          ],
          [
            -71.0697272,
            42.4370387
          ],
          [
            -71.0697001,
            42.4371825
          ],
          [
            -71.0696965,
            42.4373449
          ],
          [
            -71.0697362,
            42.4375553
          ],
          [
            -71.069821,
            42.4379335
          ],
          [
            -71.0698875,
            42.4382046
          ],
          [
            -71.0698368,
            42.4382193
          ]
        ]
      },
      "properties": {
        "name": "Spot Pond Brook Greenway (Phase 1)",
        "status": "funded",
        "treatment": "shared_use_path",
        "note": "Approved for construction 2029",
        "osm_way": 1111657052
      }
    }
  ]
}